{
  "norad_id": 62884,
  "name": "STARLINK-11437 [DTC]",
  "history": [
    {
      "epoch": "2026-03-28T07:27:54.504864Z",
      "apogee_km": 358.29365648439034,
      "perigee_km": 353.808552523029,
      "latitude_deg": -8.953837127796699e-06,
      "longitude_deg": 131.64696873998258,
      "height_km": 355.6544853585655,
      "semi_major_axis_km": 6734.188104503709,
      "eccentricity": 0.00033301,
      "inclination_deg": 43.0007,
      "raan_deg": 69.3574,
      "arg_perigee_deg": 274.3605,
      "mean_anomaly_deg": 85.6882,
      "mean_motion_rev_day": 15.70995341
    },
    {
      "epoch": "2026-03-29T04:49:44.764320Z",
      "apogee_km": 358.0412423998796,
      "perigee_km": 354.98101828945073,
      "latitude_deg": -2.896836110888224e-05,
      "longitude_deg": 164.943946132711,
      "height_km": 356.33661339555005,
      "semi_major_axis_km": 6734.648130344664,
      "eccentricity": 0.0002272,
      "inclination_deg": 43.0016,
      "raan_deg": 63.9912,
      "arg_perigee_deg": 268.0455,
      "mean_anomaly_deg": 92.0152,
      "mean_motion_rev_day": 15.70834378
    },
    {
      "epoch": "2026-03-29T23:08:27.306816Z",
      "apogee_km": 357.0474069728489,
      "perigee_km": 355.2143392577864,
      "latitude_deg": 3.4616117040207584e-06,
      "longitude_deg": -115.08471891597074,
      "height_km": 356.428382940226,
      "semi_major_axis_km": 6734.267873115317,
      "eccentricity": 0.0001361,
      "inclination_deg": 42.9986,
      "raan_deg": 59.3918,
      "arg_perigee_deg": 235.0113,
      "mean_anomaly_deg": 125.0627,
      "mean_motion_rev_day": 15.70967428
    }
  ]
}